LEMUR-2-JENNYBARNA      
1 42753U 17019C   17281.35646689  .00005283  00000-0  20190-3 0  9998
2 42753  51.6418 218.0494 0011067  30.1402 330.0213 15.28194673 18547
LEMUR-2-ROBMOORE        
1 42754U 17019D   17281.43510415  .00004517  00000-0  17613-3 0  9990
2 42754  51.6404 217.8192 0011017  32.8616 327.3046 15.27885324 18582
LEMUR-2-SPIROVISION     
1 42755U 17019E   17281.88707220  .00005004  00000-0  19257-3 0  9990
2 42755  51.6411 215.5863 0011066  34.5394 325.6302 15.28084198 18540
UCLSAT                  
1 42765U 17036A   17281.45304645  .00002200  00000-0  10211-3 0  9993
2 42765  97.4375 339.9365 0010741 233.3179 126.7071 15.21052564 17025
LITUANICASAT-2          
1 42768U 17036D   17281.79207554  .00003574  00000-0  16811-3 0  9991
2 42768  97.4377 340.0974 0015265 221.4465 138.5613 15.20121151 16357
LEMUR-2-SHAINAJOHL      
1 42771U 17036G   17281.58476207  .00002643  00000-0  12498-3 0  9998
2 42771  97.4378 339.9161 0014303 221.4314 138.5837 15.20176792 16261
LEMUR-2-XUENITERENCE    
1 42772U 17036H   17281.18638813  .00002645  00000-0  12500-3 0  9994
2 42772  97.4378 339.5304 0013929 222.4453 137.5706 15.20212403 16203
LEMUR-2-LUCYBRYCE       
1 42773U 17036J   17281.83921651  .00003373  00000-0  15783-3 0  9997
2 42773  97.4375 340.1874 0013865 219.1165 140.9068 15.20358700 16304
LEMUR-2-KUNGFOO         
1 42774U 17036K   17281.77414835  .00002813  00000-0  13243-3 0  9999
2 42774  97.4377 340.1245 0013770 219.8167 140.2059 15.20286199 16285
AALTO-1                 
1 42775U 17036L   17281.17917922  .00001742  00000-0  83471-4 0  9990
2 42775  97.4379 339.5407 0013345 221.2214 138.8015 15.20202111 16207
URSA MAIOR              
1 42776U 17036M   17281.30805057  .00001694  00000-0  81118-4 0  9993
2 42776  97.4382 339.6777 0013209 220.9433 139.0811 15.20247481 16229
COMPASS 2               
1 42777U 17036N   17281.15345759  .00003289  00000-0  15250-3 0  9990
2 42777  97.4389 339.5919 0012213 225.5020 134.5218 15.20711433 16191
LEMUR-2-LYNSEY-SYMO     
1 42779U 17036Q   17281.59905248  .00003291  00000-0  15148-3 0  9994
2 42779  97.4381 340.0546 0011650 230.3539 129.6669 15.20965481 16257
LEMUR-2-LISASAURUS      
1 42780U 17036R   17281.59918335  .00002790  00000-0  12914-3 0  9998
2 42780  97.4379 340.0506 0011523 230.6168 129.4048 15.20903427 16264
LEMUR-2-SAM-AMELIA      
1 42781U 17036S   17281.85892978  .00003266  00000-0  15018-3 0  9999
2 42781  97.4376 340.3136 0011513 229.7127 130.3103 15.21004173 16294
LEMUR-2-MCPEAKE         
1 42782U 17036T   17281.46217321  .00003423  00000-0  15711-3 0  9995
2 42782  97.4379 339.9293 0011327 230.6769 129.3464 15.21035906 16232
DIAMOND RED             
1 42783U 17036U   17281.39958992  .00001530  00000-0  72404-4 0  9994
2 42783  97.4381 339.8567 0011350 233.7200 126.2988 15.20828679 16232
PEGASUS                 
1 42784U 17036V   17281.79154174  .00002221  00000-0  10346-3 0  9993
2 42784  97.4377 340.2521 0011308 232.2105 127.8107 15.20911919 16291
DIAMOND GREEN           
1 42785U 17036W   17281.85912293  .00001956  00000-0  91690-4 0  9991
2 42785  97.4378 340.3161 0011252 232.1359 127.8859 15.20825078 16296
DIAMOND BLUE            
1 42786U 17036X   17281.85694523  .00001286  00000-0  61419-4 0  9997
2 42786  97.4381 340.3177 0011108 232.6811 127.3413 15.20803546 16293
NUDTSAT                 
1 42787U 17036Y   17281.58339588  .00003290  00000-0  15062-3 0  9994
2 42787  97.4378 340.0713 0010953 232.8991 127.1244 15.21163333 16105
SUCHAI                  
1 42788U 17036Z   17281.58657928  .00002545  00000-0  11758-3 0  9996
2 42788  97.4378 340.0658 0010936 232.9790 127.0446 15.21055824 16336
SKCUBE                  
1 42789U 17036AA  17281.58410770  .00002430  00000-0  11236-3 0  9993
2 42789  97.4376 340.0678 0010766 232.9043 127.1210 15.21075209 16259
VZLUSAT-1               
1 42790U 17036AB  17281.11733385  .00003444  00000-0  15736-3 0  9999
2 42790  97.4376 339.6185 0010460 235.0985 124.9268 15.21203076 16183
ROBUSTA-1B              
1 42792U 17036AD  17281.77262265  .00002432  00000-0  11201-3 0  9996
2 42792  97.4372 340.2704 0010330 233.3159 126.7128 15.21208648 16293
CICERO 6                
1 42793U 17036AE  17281.30036744  .00001901  00000-0  88039-4 0  9991
2 42793  97.4372 339.8300 0009333 236.0675 123.9674 15.21306672 16295
D-SAT                   
1 42794U 17036AF  17281.60956117  .00000423  00000-0  42371-4 0  9997
2 42794  97.6300 340.2492 0128445  39.5005 321.5489 14.90660644 16248
TOKI                    
1 42820U 98067MU  17281.21899831  .00021154  00000-0  28322-3 0  9999
2 42820  51.6384 193.5063 0001483 310.4221  49.6642 15.57950693 14456
GHANASAT-1              
1 42821U 98067MV  17281.22292781  .00020841  00000-0  28037-3 0  9997
2 42821  51.6384 193.5325 0001557 315.6461  44.4407 15.57832446 14438
MAZAALAI (NUMSAT-1)     
1 42822U 98067MW  17281.86506786  .00019267  00000-0  25931-3 0  9991
2 42822  51.6383 190.3210 0001500 321.1904  38.8981 15.57876737 14534
BRAC ONNESHA            
1 42823U 98067MX  17281.80291899  .00020009  00000-0  26902-3 0  9997
2 42823  51.6388 190.6583 0004981 337.6342  22.4432 15.57868037 14523
NIGERIAEDUSAT-1         
1 42824U 98067MY  17281.16509877  .00024880  00000-0  33398-3 0  9993
2 42824  51.6391 193.8989 0004873 336.6611  23.4159 15.57765208 14445
LEMUR-2-GREENBERG       
1 42837U 17042N   17281.57085954  .00001134  00000-0  11976-3 0  9996
2 42837  97.6077 188.2110 0012483 321.2105  38.8216 14.91107758 12852
LEMUR-2-ANDIS           
1 42838U 17042P   17281.56955827  .00001020  00000-0  10816-3 0  9997
2 42838  97.6077 188.2121 0012548 321.1695  38.8621 14.91125873 12858
LEMUR-2-MONSON          
1 42839U 17042Q   17281.56409957  .00000818  00000-0  87723-4 0  9992
2 42839  97.6076 188.2186 0012227 320.1750  39.8571 14.91199021 12855
LEMUR-2-FURIAUS         
1 42840U 17042R   17281.62901160  .00001182  00000-0  12412-3 0  9991
2 42840  97.6076 188.2854 0012349 320.5789  39.4531 14.91263117 12850
LEMUR-2-PETERG          
1 42841U 17042S   17281.62139251  .00001195  00000-0  12505-3 0  9993
2 42841  97.6077 188.2960 0011965 319.2785  40.7538 14.91392569 12861
LEMUR-2-DEMBITZ         
1 42842U 17042T   17281.62011128  .00001202  00000-0  12564-3 0  9990
2 42842  97.6076 188.2961 0011982 319.8699  40.1634 14.91415816 12863
LEMUR-2-ZACHARY         
1 42845U 17042W   17281.60731090  .00000760  00000-0  81007-4 0  9995
2 42845  97.6026 188.2546 0012410 324.9463  35.0938 14.91615776 12859
FLOCK 2K-03             
1 42850U 17042AB  17281.70827697  .00011249  00000-0  34622-3 0  9995
2 42850  96.9947 186.0687 0010303 312.7777  47.2599 15.33750695 13040
FLOCK 2K-04             
1 42851U 17042AC  17281.71079105  .00012114  00000-0  37343-3 0  9995
2 42851  96.9949 186.0679 0010064 314.7850  45.2574 15.33686318 13043
FLOCK 2K-01             
1 42852U 17042AD  17281.70954371  .00011581  00000-0  35711-3 0  9996
2 42852  96.9951 186.0688 0009980 313.9752  46.0668 15.33688462 13049
FLOCK 2K-02             
1 42853U 17042AE  17281.58735667  .00002963  00000-0  95264-4 0  9992
2 42853  96.9957 185.9392 0010436 311.6700  48.3649 15.32941423 13022
FLOCK 2K-47             
1 42854U 17042AF  17281.70681880  .00012130  00000-0  37325-3 0  9994
2 42854  96.9949 186.0702 0009785 312.4114  47.6301 15.33745378 13045
FLOCK 2K-48             
1 42855U 17042AG  17281.83653808  .00012048  00000-0  37012-3 0  9999
2 42855  96.9950 186.1982 0009751 312.4069  47.6349 15.33799453 13068
FLOCK 2K-45             
1 42856U 17042AH  17281.44351352  .00012598  00000-0  38696-3 0  9995
2 42856  96.9950 185.8277 0009851 312.7952  47.2463 15.33792122 13000
FLOCK 2K-24             
1 42857U 17042AJ  17281.50771454  .00013308  00000-0  40868-3 0  9996
2 42857  96.9950 185.8891 0009607 311.6959  48.3462 15.33790382 13015
FLOCK 2K-46             
1 42858U 17042AK  17281.76748622  .00006661  00000-0  20545-3 0  9990
2 42858  96.9952 186.1425 0009751 310.7819  49.2578 15.33847502 13059
FLOCK 2K-23             
1 42859U 17042AL  17281.70138194  .00012098  00000-0  37106-3 0  9994
2 42859  96.9950 186.0804 0009913 311.6521  48.3873 15.33847694 13047
FLOCK 2K-21             
1 42860U 17042AM  17281.76474864  .00007921  00000-0  24383-3 0  9991
2 42860  96.9950 186.1439 0009758 309.9418  50.0967 15.33850271 13056
FLOCK 2K-22             
1 42861U 17042AN  17281.70648338  .00011913  00000-0  36947-3 0  9990
2 42861  96.9954 186.0755 0009922 308.7025  51.3330 15.33498514 13040
FLOCK 2K-07             
1 42862U 17042AP  17281.24118617  .00012383  00000-0  37947-3 0  9995
2 42862  96.9956 185.6520 0009968 312.2434  47.7963 15.33871073 12980
FLOCK 2K-08             
1 42863U 17042AQ  17281.43457244  .00012875  00000-0  39391-3 0  9990
2 42863  96.9948 185.8371 0009890 311.1973  48.8417 15.33912173 13005
FLOCK 2K-05             
1 42864U 17042AR  17281.69663928  .00009696  00000-0  29812-3 0  9991
2 42864  96.9950 186.0856 0009971 309.2265  50.8092 15.33825795 13041
FLOCK 2K-40             
1 42865U 17042AS  17281.69335653  .00012355  00000-0  37778-3 0  9999
2 42865  96.9948 186.0889 0009901 309.5161  50.5207 15.33940599 13041
FLOCK 2K-39             
1 42866U 17042AT  17281.75944299  .00012546  00000-0  38390-3 0  9992
2 42866  96.9950 186.1512 0009858 309.7255  50.3119 15.33915405 13055
FLOCK 2K-37             
1 42867U 17042AU  17281.69174455  .00012632  00000-0  38562-3 0  9992
2 42867  96.9948 186.0919 0009963 310.0258  50.0111 15.33987165 13048
FLOCK 2K-38             
1 42868U 17042AV  17281.68940189  .00009982  00000-0  30476-3 0  9997
2 42868  96.9948 186.0950 0010022 310.0675  49.9689 15.34041912 13044
FLOCK 2K-31             
1 42869U 17042AW  17281.88316788  .00009449  00000-0  28897-3 0  9994
2 42869  96.9948 186.2813 0010088 307.6741  52.3588 15.34003972 13076
